ATLAS CENTAUR R/B       
1 06155U 72065B   26051.05825985  .00001210  00000+0  16792-3 0  9994
2 06155  35.0020  49.0737 0034247 222.6154 137.1887 14.77631382838658
SL-8 R/B                
1 08459U 75112B   26051.39142485  .00000129  00000+0  51050-4 0  9998
2 08459  74.0596  50.7338 0014908 150.6577 209.5417 14.38193573629388
SL-3 R/B                
1 10114U 77057B   26051.68768427  .00012406  00000+0  26509-3 0  9992
2 10114  97.5749 222.8694 0007113 353.2060   6.9091 15.44969586665700
SEASAT 1                
1 10967U 78064A   26051.68718242  .00000185  00000+0  90327-4 0  9998
2 10967 108.0149  89.8194 0001905 290.5847  69.5094 14.46146001504051
SL-14 R/B               
1 11267U 79011B   26051.67872584  .00000518  00000+0  48544-4 0  9998
2 11267  82.5235 112.7141 0017562 112.7437 247.5640 14.91886589526243
SL-8 R/B                
1 11574U 79089B   26051.54431174  .00000217  00000+0  73550-4 0  9997
2 11574  74.0688 122.7827 0016913 297.1892  62.7540 14.42339441433638
SL-14 R/B               
1 11672U 80005B   26051.74768057  .00000536  00000+0  51699-4 0  9995
2 11672  82.5170 323.3033 0014684 215.5113 144.5130 14.90907476473964
SL-8 R/B                
1 12139U 81003B   26051.71154008  .00014425  00000+0  37816-3 0  9991
2 12139  82.9392 305.7159 0262630 237.7194 119.8352 15.10313473312118
SL-3 R/B                
1 12465U 81046B   26051.71516230  .00011398  00000+0  26901-3 0  9998
2 12465  81.2329 310.1181 0020702  78.5679 281.7888 15.41504756435814
SL-3 R/B                
1 12904U 81103B   26051.73644787  .00004657  00000+0  20757-3 0  9994
2 12904  81.1560 233.3187 0013071 346.6928  13.3956 15.21153285970653
SL-3 R/B                
1 13068U 82013B   26051.68600480  .00004933  00000+0  21476-3 0  9999
2 13068  81.1763 180.6923 0021877 235.8265 124.0893 15.21816773401767
SL-3 R/B                
1 13154U 82039B   26051.69316478  .00001963  00000+0  11827-3 0  9994
2 13154  81.1590 235.5551 0030010  19.9903 340.2490 15.09975293379079
