CCSDS_OMM_VERS = 2.0
CREATION_DATE  = 
ORIGINATOR     = 

OBJECT_NAME    = ATLAS CENTAUR R/B
OBJECT_ID      = 1972-065B
CENTER_NAME    = EARTH
REF_FRAME      = TEME
TIME_SYSTEM    = UTC
MEAN_ELEMENT_THEORY = SGP/SGP4

EPOCH          = 2026-02-20T01:23:53.651040
MEAN_MOTION    = 14.77631382
ECCENTRICITY   = .00342476
INCLINATION    = 35.0020
RA_OF_ASC_NODE = 49.0737
ARG_OF_PERICENTER = 222.6154
MEAN_ANOMALY   = 137.1887

EPHEMERIS_TYPE = 0
CLASSIFICATION_TYPE = U
NORAD_CAT_ID   = 6155
ELEMENT_SET_NO = 999
REV_AT_EPOCH   = 83865
BSTAR          = .16792141E-3
MEAN_MOTION_DOT = .121E-4
MEAN_MOTION_DDOT = 0

CCSDS_OMM_VERS = 2.0
CREATION_DATE  = 
ORIGINATOR     = 

OBJECT_NAME    = SL-8 R/B
OBJECT_ID      = 1975-112B
CENTER_NAME    = EARTH
REF_FRAME      = TEME
TIME_SYSTEM    = UTC
MEAN_ELEMENT_THEORY = SGP/SGP4

EPOCH          = 2026-02-20T09:23:39.107040
MEAN_MOTION    = 14.38193573
ECCENTRICITY   = .0014908
INCLINATION    = 74.0596
RA_OF_ASC_NODE = 50.7338
ARG_OF_PERICENTER = 150.6577
MEAN_ANOMALY   = 209.5417

EPHEMERIS_TYPE = 0
CLASSIFICATION_TYPE = U
NORAD_CAT_ID   = 8459
ELEMENT_SET_NO = 999
REV_AT_EPOCH   = 62938
BSTAR          = .5105E-4
MEAN_MOTION_DOT = .129E-5
MEAN_MOTION_DDOT = 0

CCSDS_OMM_VERS = 2.0
CREATION_DATE  = 
ORIGINATOR     = 

OBJECT_NAME    = SL-3 R/B
OBJECT_ID      = 1977-057B
CENTER_NAME    = EARTH
REF_FRAME      = TEME
TIME_SYSTEM    = UTC
MEAN_ELEMENT_THEORY = SGP/SGP4

EPOCH          = 2026-02-20T16:30:15.920928
MEAN_MOTION    = 15.44969586
ECCENTRICITY   = .0007113
INCLINATION    = 97.5749
RA_OF_ASC_NODE = 222.8694
ARG_OF_PERICENTER = 353.2060
MEAN_ANOMALY   = 6.9091

EPHEMERIS_TYPE = 0
CLASSIFICATION_TYPE = U
NORAD_CAT_ID   = 10114
ELEMENT_SET_NO = 999
REV_AT_EPOCH   = 66570
BSTAR          = .26509E-3
MEAN_MOTION_DOT = .12406E-3
MEAN_MOTION_DDOT = 0

CCSDS_OMM_VERS = 2.0
CREATION_DATE  = 
ORIGINATOR     = 

OBJECT_NAME    = SEASAT 1
OBJECT_ID      = 1978-064A
CENTER_NAME    = EARTH
REF_FRAME      = TEME
TIME_SYSTEM    = UTC
MEAN_ELEMENT_THEORY = SGP/SGP4

EPOCH          = 2026-02-20T16:29:32.561088
MEAN_MOTION    = 14.46146001
ECCENTRICITY   = .0001905
INCLINATION    = 108.0149
RA_OF_ASC_NODE = 89.8194
ARG_OF_PERICENTER = 290.5847
MEAN_ANOMALY   = 69.5094

EPHEMERIS_TYPE = 0
CLASSIFICATION_TYPE = U
NORAD_CAT_ID   = 10967
ELEMENT_SET_NO = 999
REV_AT_EPOCH   = 50405
BSTAR          = .90327E-4
MEAN_MOTION_DOT = .185E-5
MEAN_MOTION_DDOT = 0

CCSDS_OMM_VERS = 2.0
CREATION_DATE  = 
ORIGINATOR     = 

OBJECT_NAME    = SL-14 R/B
OBJECT_ID      = 1979-011B
CENTER_NAME    = EARTH
REF_FRAME      = TEME
TIME_SYSTEM    = UTC
MEAN_ELEMENT_THEORY = SGP/SGP4

EPOCH          = 2026-02-20T16:17:21.912576
MEAN_MOTION    = 14.91886589
ECCENTRICITY   = .0017562
INCLINATION    = 82.5235
RA_OF_ASC_NODE = 112.7141
ARG_OF_PERICENTER = 112.7437
MEAN_ANOMALY   = 247.5640

EPHEMERIS_TYPE = 0
CLASSIFICATION_TYPE = U
NORAD_CAT_ID   = 11267
ELEMENT_SET_NO = 999
REV_AT_EPOCH   = 52624
BSTAR          = .48544E-4
MEAN_MOTION_DOT = .518E-5
MEAN_MOTION_DDOT = 0

CCSDS_OMM_VERS = 2.0
CREATION_DATE  = 
ORIGINATOR     = 

OBJECT_NAME    = SL-8 R/B
OBJECT_ID      = 1979-089B
CENTER_NAME    = EARTH
REF_FRAME      = TEME
TIME_SYSTEM    = UTC
MEAN_ELEMENT_THEORY = SGP/SGP4

EPOCH          = 2026-02-20T13:03:48.534336
MEAN_MOTION    = 14.42339441
ECCENTRICITY   = .0016913
INCLINATION    = 74.0688
RA_OF_ASC_NODE = 122.7827
ARG_OF_PERICENTER = 297.1892
MEAN_ANOMALY   = 62.7540

EPHEMERIS_TYPE = 0
CLASSIFICATION_TYPE = U
NORAD_CAT_ID   = 11574
ELEMENT_SET_NO = 999
REV_AT_EPOCH   = 43363
BSTAR          = .7355E-4
MEAN_MOTION_DOT = .217E-5
MEAN_MOTION_DDOT = 0

CCSDS_OMM_VERS = 2.0
CREATION_DATE  = 
ORIGINATOR     = 

OBJECT_NAME    = SL-14 R/B
OBJECT_ID      = 1980-005B
CENTER_NAME    = EARTH
REF_FRAME      = TEME
TIME_SYSTEM    = UTC
MEAN_ELEMENT_THEORY = SGP/SGP4

EPOCH          = 2026-02-20T17:56:39.601248
MEAN_MOTION    = 14.90907476
ECCENTRICITY   = .0014684
INCLINATION    = 82.5170
RA_OF_ASC_NODE = 323.3033
ARG_OF_PERICENTER = 215.5113
MEAN_ANOMALY   = 144.5130

EPHEMERIS_TYPE = 0
CLASSIFICATION_TYPE = U
NORAD_CAT_ID   = 11672
ELEMENT_SET_NO = 999
REV_AT_EPOCH   = 47396
BSTAR          = .51699E-4
MEAN_MOTION_DOT = .536E-5
MEAN_MOTION_DDOT = 0

CCSDS_OMM_VERS = 2.0
CREATION_DATE  = 
ORIGINATOR     = 

OBJECT_NAME    = SL-8 R/B
OBJECT_ID      = 1981-003B
CENTER_NAME    = EARTH
REF_FRAME      = TEME
TIME_SYSTEM    = UTC
MEAN_ELEMENT_THEORY = SGP/SGP4

EPOCH          = 2026-02-20T17:04:37.062912
MEAN_MOTION    = 15.10313473
ECCENTRICITY   = .026263
INCLINATION    = 82.9392
RA_OF_ASC_NODE = 305.7159
ARG_OF_PERICENTER = 237.7194
MEAN_ANOMALY   = 119.8352

EPHEMERIS_TYPE = 0
CLASSIFICATION_TYPE = U
NORAD_CAT_ID   = 12139
ELEMENT_SET_NO = 999
REV_AT_EPOCH   = 31211
BSTAR          = .37816E-3
MEAN_MOTION_DOT = .14425E-3
MEAN_MOTION_DDOT = 0

CCSDS_OMM_VERS = 2.0
CREATION_DATE  = 
ORIGINATOR     = 

OBJECT_NAME    = SL-3 R/B
OBJECT_ID      = 1981-046B
CENTER_NAME    = EARTH
REF_FRAME      = TEME
TIME_SYSTEM    = UTC
MEAN_ELEMENT_THEORY = SGP/SGP4

EPOCH          = 2026-02-20T17:09:50.022720
MEAN_MOTION    = 15.41504756
ECCENTRICITY   = .0020702
INCLINATION    = 81.2329
RA_OF_ASC_NODE = 310.1181
ARG_OF_PERICENTER = 78.5679
MEAN_ANOMALY   = 281.7888

EPHEMERIS_TYPE = 0
CLASSIFICATION_TYPE = U
NORAD_CAT_ID   = 12465
ELEMENT_SET_NO = 999
REV_AT_EPOCH   = 43581
BSTAR          = .26901E-3
MEAN_MOTION_DOT = .11398E-3
MEAN_MOTION_DDOT = 0

CCSDS_OMM_VERS = 2.0
CREATION_DATE  = 
ORIGINATOR     = 

OBJECT_NAME    = SL-3 R/B
OBJECT_ID      = 1981-103B
CENTER_NAME    = EARTH
REF_FRAME      = TEME
TIME_SYSTEM    = UTC
MEAN_ELEMENT_THEORY = SGP/SGP4

EPOCH          = 2026-02-20T17:40:29.095968
MEAN_MOTION    = 15.21153285
ECCENTRICITY   = .0013071
INCLINATION    = 81.1560
RA_OF_ASC_NODE = 233.3187
ARG_OF_PERICENTER = 346.6928
MEAN_ANOMALY   = 13.3956

EPHEMERIS_TYPE = 0
CLASSIFICATION_TYPE = U
NORAD_CAT_ID   = 12904
ELEMENT_SET_NO = 999
REV_AT_EPOCH   = 97065
BSTAR          = .20757E-3
MEAN_MOTION_DOT = .4657E-4
MEAN_MOTION_DDOT = 0

CCSDS_OMM_VERS = 2.0
CREATION_DATE  = 
ORIGINATOR     = 

OBJECT_NAME    = SL-3 R/B
OBJECT_ID      = 1982-013B
CENTER_NAME    = EARTH
REF_FRAME      = TEME
TIME_SYSTEM    = UTC
MEAN_ELEMENT_THEORY = SGP/SGP4

EPOCH          = 2026-02-20T16:27:50.814720
MEAN_MOTION    = 15.21816773
ECCENTRICITY   = .0021877
INCLINATION    = 81.1763
RA_OF_ASC_NODE = 180.6923
ARG_OF_PERICENTER = 235.8265
MEAN_ANOMALY   = 124.0893

EPHEMERIS_TYPE = 0
CLASSIFICATION_TYPE = U
NORAD_CAT_ID   = 13068
ELEMENT_SET_NO = 999
REV_AT_EPOCH   = 40176
BSTAR          = .21476E-3
MEAN_MOTION_DOT = .4933E-4
MEAN_MOTION_DDOT = 0

CCSDS_OMM_VERS = 2.0
CREATION_DATE  = 
ORIGINATOR     = 

OBJECT_NAME    = SL-3 R/B
OBJECT_ID      = 1982-039B
CENTER_NAME    = EARTH
REF_FRAME      = TEME
TIME_SYSTEM    = UTC
MEAN_ELEMENT_THEORY = SGP/SGP4

EPOCH          = 2026-02-20T16:38:09.436992
MEAN_MOTION    = 15.09975293
ECCENTRICITY   = .003001
INCLINATION    = 81.1590
RA_OF_ASC_NODE = 235.5551
ARG_OF_PERICENTER = 19.9903
MEAN_ANOMALY   = 340.2490

EPHEMERIS_TYPE = 0
CLASSIFICATION_TYPE = U
NORAD_CAT_ID   = 13154
ELEMENT_SET_NO = 999
REV_AT_EPOCH   = 37907
BSTAR          = .11827E-3
MEAN_MOTION_DOT = .1963E-4
MEAN_MOTION_DDOT = 0

